LEMUR-1                 
1 40044U 14033AL  26163.91485806  .00002202  00000+0  25737-3 0  9994
2 40044  97.7867 313.8152 0049743  92.2946 268.3965 14.85231233644836
LEMUR-2-GREENBERG       
1 42837U 17042N   26164.23153140  .00016323  00000+0  54276-3 0  9997
2 42837  97.3811 344.8753 0008885  27.9585 332.2132 15.31213616487783
LEMUR-2-ANDIS           
1 42838U 17042P   26163.94383171  .00021366  00000+0  63623-3 0  9993
2 42838  97.3668 344.7583 0008463  27.7226 332.4467 15.34685623487806
LEMUR-2-MONSON          
1 42839U 17042Q   26164.23174016  .00013969  00000+0  51474-3 0  9994
2 42839  97.4071 344.8538 0006579  20.4340 339.7162 15.27913066487562
LEMUR-2-FURIAUS         
1 42840U 17042R   26164.22253227  .00017287  00000+0  59421-3 0  9994
2 42840  97.3763 342.8308 0008372  81.1455 279.0734 15.30130049487600
LEMUR-2-PETERG          
1 42841U 17042S   26164.05581533  .00021856  00000+0  67112-3 0  9993
2 42841  97.3980 349.0804 0003553  13.6419 346.4919 15.33736280487806
LEMUR-2-DEMBITZ         
1 42842U 17042T   26164.04635310  .00017469  00000+0  59976-3 0  9990
2 42842  97.3817 345.6765 0007116  42.7180 317.4613 15.30174730487713
LEMUR-2-ZACHARY         
1 42845U 17042W   26164.25223540  .00047253  00000+0  84266-3 0  9998
2 42845  97.3596 355.8068 0003208  48.1807 311.9718 15.49942056488599
LEMUR-2-AMANDA-SVANTE   
1 48269U 21034B   26164.18322648  .00032834  00000+0  99520-3 0  9999
2 48269  97.5769 242.3632 0001873 219.4599 140.6507 15.34071006280442
LEMUR-2-SPECIAL-K       
1 48273U 21034F   26164.18242028  .00143233  00000+0  15334-2 0  9993
2 48273  97.5659 250.7526 0003818 230.6982 129.3938 15.63381328281066
LEMUR-2-EMBRIONOVIS     
1 56970U 23084AQ  26163.64593746  .00014172  00000+0  38777-3 0  9995
2 56970  97.6276 307.6717 0008018 338.2770  21.8132 15.37439314166981
LEMUR-2-DEVERILL-M-T    
1 57391U 23100F   26164.07551806  .00027201  00000+0  69235-3 0  9991
2 57391  99.4477 201.6465 0006738  63.0912 297.1015 15.39558515160612
LEMUR-2-BASS            
1 58259U 23174D   26164.18958280  .00017590  00000+0  40079-3 0  9990
2 58259  97.3851 248.8460 0007410 175.1155 185.0166 15.42967758144744
LEMUR-2-JK0903EM1407    
1 58336U 23174CJ  26164.20971108  .00027267  00000+0  46207-3 0  9994
2 58336  97.3923 254.5683 0005884 130.7787 229.3977 15.51486430145119
LEMUR-2-MJR092620       
1 58340U 23174CN  26164.20747902  .00019961  00000+0  42818-3 0  9998
2 58340  97.3979 254.1633 0007082 129.1666 231.0213 15.44737687145035
LEMUR-2-NIMBUS2000      
1 58899U 24022A   26164.11502422  .00018016  00000+0  45428-3 0  9996
2 58899  97.4114  14.0663 0010200 128.3341 231.8823 15.39873328131643
LEMUR-2-VALHALLA        
1 58900U 24022B   26164.11039579  .00017250  00000+0  43954-3 0  9998
2 58900  97.4112  14.0546 0010729 124.6829 235.5430 15.39556468131648
LEMUR-2-OBA-NI-JESU     
1 58902U 24022D   26164.26942670  .07840474  25257-5  90464-3 0  9995
2 58902  97.3603  29.4721 0009182 248.5343 111.4976 16.36778297132706
LEMUR-2-CAEL            
1 58903U 24022E   26164.12365479  .00019120  00000+0  46683-3 0  9993
2 58903  97.4093  14.9967 0009260 109.4773 250.7475 15.40850379131718
LEMUR-2-JOHNNYTRUONG    
1 59146U 24043BA  26164.17390052  .00039231  00000+0  48200-3 0  9998
2 59146  97.5365 315.6297 0004620 188.4901 171.6279 15.60181577127417
LEMUR-2-TOMATOKECHUP    
1 60471U 24149D   26164.19853833  .00010741  00000+0  30914-3 0  9999
2 60471  97.3805 246.2349 0001059 184.0380 176.0855 15.35950661101556
LEMUR-2-STELLA          
1 60533U 24149BT  26163.97803499  .00013021  00000+0  76728-3 0  9993
2 60533  97.6742 246.4142 0001579  97.5198 262.6211 15.11722144 99868
LEMUR-2-MARHISYAM       
1 60536U 24149BW  26164.28790169  .00010845  00000+0  64937-3 0  9990
2 60536  97.6891 247.1707 0003389 123.1020 237.0535 15.11187850 99899
LEMUR-2-AHMED-ASRAR     
1 60576U 24149DN  26164.19347508  .00012533  00000+0  72049-3 0  9998
2 60576  97.7008 249.1531 0002065  50.2375 309.9037 15.12626278 99961
LEMUR-2-LLOYD           
1 60577U 24149DP  26164.19677434  .00009643  00000+0  61074-3 0  9997
2 60577  97.6752 245.3236 0004730 149.7686 210.3816 15.09165029 99796
LEMUR-2-SQUIRRELCOMM    
1 60578U 24149DQ  26163.93989190  .00005954  00000+0  40046-3 0  9991
2 60578  97.6717 244.8644 0006891  74.2441 285.9546 15.07106938 99763
LEMUR-2-SIERRINI        
1 60579U 24149DR  26163.97947287  .00012395  00000+0  74798-3 0  9995
2 60579  97.6845 246.5526 0005485 178.8770 181.2473 15.10860650 99824
LEMUR-2-WILSON          
1 62694U 25009CP  26164.21340296  .00002218  00000+0  20724-3 0  9999
2 62694  97.7024 242.7475 0004299  65.9821 294.1850 14.95147685 76769
LEMUR-2-STAR-FOX        
1 62696U 25009CR  26164.03028091  .00008516  00000+0  64636-3 0  9994
2 62696  97.6959 245.6685 0003410 122.1578 237.9978 15.02445272 76938
